GLOBALSTAR M067         
1 32263U 07048A   25137.95310883 -.00000085  00000+0  89631-4 0  9994
2 32263  51.9699 124.3981 0001010 289.9505  96.7880 12.40672407805739
GLOBALSTAR M070         
1 32264U 07048B   25137.74788676 -.00000061  00000+0  24124-3 0  9990
2 32264  51.9744 221.2345 0000534 115.2351  28.2476 12.62318129809829
GLOBALSTAR M066         
1 32265U 07048C   25137.71245175 -.00000105  00000+0 -70457-4 0  9991
2 32265  51.9623 113.6783 0001437 177.4099 354.9979 12.35103766811535
GLOBALSTAR M074         
1 37189U 10054B   25137.23278042 -.00000070  00000+0  18792-3 0  9991
2 37189  52.0013 233.3438 0000350 127.7096 249.6080 12.62275086673157
GLOBALSTAR M076         
1 37190U 10054C   25137.76659356 -.00000080  00000+0  13334-3 0  9990
2 37190  52.0023 231.8855 0000316 166.5408 358.5462 12.62262693672935
GLOBALSTAR M077         
1 37191U 10054D   25137.91313440 -.00000093  00000+0  59167-4 0  9998
2 37191  52.0052 188.2891 0000205 148.1318  22.6059 12.62268232673326
